{
  "type": "FeatureCollection",
  "features": [
    {
      "type": "Feature",
      "properties": {
        "norad_id": 66647,
        "name": "COSMOS 2597 (RODNIK-S 22)",
        "group": "last-30-days",
        "lat": -82.18802842088338,
        "lon": 171.10382942819538,
        "alt_km": 1499.9680069149645,
        "timestamp": "2025-12-27T10:28:57.513555+00:00",
        "meta_object_name": "COSMOS 2597 (RODNIK-S 22)",
        "meta_object_id": "2025-273A",
        "meta_epoch": "2025-12-26T19:30:39.240288",
        "meta_mean_motion": 12.41952314,
        "meta_eccentricity": 0.00075998,
        "meta_inclination": 82.4993,
        "meta_ra_of_asc_node": 277.7108,
        "meta_arg_of_pericenter": 252.7737,
        "meta_mean_anomaly": 107.251,
        "meta_ephemeris_type": 0,
        "meta_classification_type": "U",
        "meta_norad_cat_id": 66647,
        "meta_element_set_no": 999,
        "meta_rev_at_epoch": 388,
        "meta_bstar": 9.9658941e-05,
        "meta_mean_motion_dot": 2.3e-07,
        "meta_mean_motion_ddot": 0,
        "tle_line1": "1 66647U 25273A   25360.81295417  .00000023  00000+0  99659-4 0  9997",
        "tle_line2": "2 66647  82.4993 277.7108 0007599 252.7737 107.2510 12.41952314  3888"
      },
      "geometry": {
        "type": "Point",
        "coordinates": [
          171.10382942819538,
          -82.18802842088338
        ]
      }
    },
    {
      "type": "Feature",
      "properties": {
        "norad_id": 66648,
        "name": "COSMOS 2598 (RODNIK-S 23)",
        "group": "last-30-days",
        "lat": 11.042510520820297,
        "lon": -81.22087148327017,
        "alt_km": 1500.4795384753597,
        "timestamp": "2025-12-27T10:28:57.513566+00:00",
        "meta_object_name": "COSMOS 2598 (RODNIK-S 23)",
        "meta_object_id": "2025-273B",
        "meta_epoch": "2025-12-27T02:41:50.051040",
        "meta_mean_motion": 12.43233668,
        "meta_eccentricity": 0.000826,
        "meta_inclination": 82.5032,
        "meta_ra_of_asc_node": 277.5085,
        "meta_arg_of_pericenter": 202.6396,
        "meta_mean_anomaly": 157.432,
        "meta_ephemeris_type": 0,
        "meta_classification_type": "U",
        "meta_norad_cat_id": 66648,
        "meta_element_set_no": 999,
        "meta_rev_at_epoch": 392,
        "meta_bstar": 5.6644e-05,
        "meta_mean_motion_dot": 1.8e-07,
        "meta_mean_motion_ddot": 0,
        "tle_line1": "1 66648U 25273B   25361.11238485  .00000018  00000+0  56644-4 0  9995",
        "tle_line2": "2 66648  82.5032 277.5085 0008260 202.6396 157.4320 12.43233668  3924"
      },
      "geometry": {
        "type": "Point",
        "coordinates": [
          -81.22087148327017,
          11.042510520820297
        ]
      }
    },
    {
      "type": "Feature",
      "properties": {
        "norad_id": 66649,
        "name": "COSMOS 2599 (RODNIK-S 24)",
        "group": "last-30-days",
        "lat": -26.652749181626703,
        "lon": 101.14999037279667,
        "alt_km": 1502.9878388980933,
        "timestamp": "2025-12-27T10:28:57.513576+00:00",
        "meta_object_name": "COSMOS 2599 (RODNIK-S 24)",
        "meta_object_id": "2025-273C",
        "meta_epoch": "2025-12-27T03:34:02.813088",
        "meta_mean_motion": 12.41152439,
        "meta_eccentricity": 0.0006357,
        "meta_inclination": 82.505,
        "meta_ra_of_asc_node": 277.5402,
        "meta_arg_of_pericenter": 239.9335,
        "meta_mean_anomaly": 120.1113,
        "meta_ephemeris_type": 0,
        "meta_classification_type": "U",
        "meta_norad_cat_id": 66649,
        "meta_element_set_no": 999,
        "meta_rev_at_epoch": 392,
        "meta_bstar": 0.00022365,
        "meta_mean_motion_dot": 4e-07,
        "meta_mean_motion_ddot": 0,
        "tle_line1": "1 66649U 25273C   25361.14864367  .00000040  00000+0  22365-3 0  9990",
        "tle_line2": "2 66649  82.5050 277.5402 0006357 239.9335 120.1113 12.41152439  3920"
      },
      "geometry": {
        "type": "Point",
        "coordinates": [
          101.14999037279667,
          -26.652749181626703
        ]
      }
    },
    {
      "type": "Feature",
      "properties": {
        "norad_id": 66650,
        "name": "BEE-1000",
        "group": "last-30-days",
        "lat": -32.43641808710947,
        "lon": -66.6853640083692,
        "alt_km": 603.7144118477754,
        "timestamp": "2025-12-27T10:28:57.513587+00:00",
        "meta_object_name": "BEE-1000",
        "meta_object_id": "2025-274A",
        "meta_epoch": "2025-12-26T16:55:14.687040",
        "meta_mean_motion": 14.91708342,
        "meta_eccentricity": 0.00112247,
        "meta_inclination": 97.7406,
        "meta_ra_of_asc_node": 287.6373,
        "meta_arg_of_pericenter": 200.3301,
        "meta_mean_anomaly": 159.7472,
        "meta_ephemeris_type": 0,
        "meta_classification_type": "U",
        "meta_norad_cat_id": 66650,
        "meta_element_set_no": 999,
        "meta_rev_at_epoch": 448,
        "meta_bstar": 0.00017602863,
        "meta_mean_motion_dot": 1.717e-05,
        "meta_mean_motion_ddot": 0,
        "tle_line1": "1 66650U 25274A   25360.70503110  .00001717  00000+0  17603-3 0  9991",
        "tle_line2": "2 66650  97.7406 287.6373 0011224 200.3301 159.7472 14.91708342  4483"
      },
      "geometry": {
        "type": "Point",
        "coordinates": [
          -66.6853640083692,
          -32.43641808710947
        ]
      }
    },
    {
      "type": "Feature",
      "properties": {
        "norad_id": 66651,
        "name": "2025-274B",
        "group": "last-30-days",
        "lat": -18.981210184348328,
        "lon": -68.95865505219422,
        "alt_km": 603.6492220700475,
        "timestamp": "2025-12-27T10:28:57.513597+00:00",
        "meta_object_name": "2025-274B",
        "meta_object_id": "2025-274B",
        "meta_epoch": "2025-12-27T00:54:37.627200",
        "meta_mean_motion": 14.91904708,
        "meta_eccentricity": 0.0011443,
        "meta_inclination": 97.7398,
        "meta_ra_of_asc_node": 287.9684,
        "meta_arg_of_pericenter": 197.4185,
        "meta_mean_anomaly": 162.6643,
        "meta_ephemeris_type": 0,
        "meta_classification_type": "U",
        "meta_norad_cat_id": 66651,
        "meta_element_set_no": 999,
        "meta_rev_at_epoch": 453,
        "meta_bstar": 0.00042985,
        "meta_mean_motion_dot": 4.297e-05,
        "meta_mean_motion_ddot": 0,
        "tle_line1": "1 66651U 25274B   25361.03793550  .00004297  00000+0  42985-3 0  9995",
        "tle_line2": "2 66651  97.7398 287.9684 0011443 197.4185 162.6643 14.91904708  4534"
      },
      "geometry": {
        "type": "Point",
        "coordinates": [
          -68.95865505219422,
          -18.981210184348328
        ]
      }
    },
    {
      "type": "Feature",
      "properties": {
        "norad_id": 66652,
        "name": "2025-274C",
        "group": "last-30-days",
        "lat": -6.5298759810602505,
        "lon": -70.74080595386779,
        "alt_km": 602.2375498800238,
        "timestamp": "2025-12-27T10:28:57.513609+00:00",
        "meta_object_name": "2025-274C",
        "meta_object_id": "2025-274C",
        "meta_epoch": "2025-12-26T18:24:58.554432",
        "meta_mean_motion": 14.91984941,
        "meta_eccentricity": 0.00109401,
        "meta_inclination": 97.7406,
        "meta_ra_of_asc_node": 287.7096,
        "meta_arg_of_pericenter": 205.0107,
        "meta_mean_anomaly": 155.0583,
        "meta_ephemeris_type": 0,
        "meta_classification_type": "U",
        "meta_norad_cat_id": 66652,
        "meta_element_set_no": 999,
        "meta_rev_at_epoch": 449,
        "meta_bstar": 0.00032448011,
        "meta_mean_motion_dot": 3.235e-05,
        "meta_mean_motion_ddot": 0,
        "tle_line1": "1 66652U 25274C   25360.76734438  .00003235  00000+0  32448-3 0  9999",
        "tle_line2": "2 66652  97.7406 287.7096 0010940 205.0107 155.0583 14.91984941  4492"
      },
      "geometry": {
        "type": "Point",
        "coordinates": [
          -70.74080595386779,
          -6.5298759810602505
        ]
      }
    },
    {
      "type": "Feature",
      "properties": {
        "norad_id": 66653,
        "name": "2025-274D",
        "group": "last-30-days",
        "lat": -6.26013874512208,
        "lon": -70.77857707449786,
        "alt_km": 603.0849926170022,
        "timestamp": "2025-12-27T10:28:57.513620+00:00",
        "meta_object_name": "2025-274D",
        "meta_object_id": "2025-274D",
        "meta_epoch": "2025-12-26T18:24:53.684928",
        "meta_mean_motion": 14.91972672,
        "meta_eccentricity": 0.00119326,
        "meta_inclination": 97.7403,
        "meta_ra_of_asc_node": 287.709,
        "meta_arg_of_pericenter": 201.7877,
        "meta_mean_anomaly": 158.2836,
        "meta_ephemeris_type": 0,
        "meta_classification_type": "U",
        "meta_norad_cat_id": 66653,
        "meta_element_set_no": 999,
        "meta_rev_at_epoch": 449,
        "meta_bstar": 0.00025148356,
        "meta_mean_motion_dot": 2.494e-05,
        "meta_mean_motion_ddot": 0,
        "tle_line1": "1 66653U 25274D   25360.76728802  .00002494  00000+0  25148-3 0  9993",
        "tle_line2": "2 66653  97.7403 287.7090 0011932 201.7877 158.2836 14.91972672  4497"
      },
      "geometry": {
        "type": "Point",
        "coordinates": [
          -70.77857707449786,
          -6.26013874512208
        ]
      }
    }
  ]
}